NORAD_CAT_ID,OBJECT_NAME,OBJECT_TYPE,EPOCH,MEAN_MOTION,ECCENTRICITY,INCLINATION,RA_OF_ASC_NODE,ARG_OF_PERICENTER,MEAN_ANOMALY,BSTAR,MEAN_MOTION_DOT,MEAN_MOTION_DDOT,TLE_LINE0,TLE_LINE1,TLE_LINE2,SEMIMAJOR_AXIS,PERIOD,APOGEE,PERIGEE,DECAYED
51788.0,STARLINK-3641,PAYLOAD,2022-07-13 14:00:01,15.08841738,0.0002183,53.2171,222.6523,30.837,3.6062,-0.00081308,-0.00013206,0.0,0 STARLINK-3641,1 51788U 22017W   22194.58334491 -.00013206  00000-0 -81308-3 0  9993,2 51788  53.2171 222.6523 0002183  30.8370   3.6062 15.08841738  1303,6917.875,95.437,541.25,538.23,0.0
51788.0,STARLINK-3641,PAYLOAD,2022-07-13 16:00:00,15.08848694,0.0002145,53.217,222.2777,31.6104,95.73,-0.0022889,-0.00036541,0.0,0 STARLINK-3641,1 51788U 22017W   22194.66667824 -.00036541  00000-0 -22889-2 0  9996,2 51788  53.2170 222.2777 0002145  31.6104  95.7300 15.08848694 22376,6917.854,95.437,541.203,538.235,0.0
51788.0,STARLINK-3641,PAYLOAD,2022-07-13 22:00:00,15.08804149,0.0001924,53.2171,221.1542,34.2128,11.8297,0.0026677,0.00042383,0.0,0 STARLINK-3641,1 51788U 22017W   22194.91667824  .00042383  00000-0  26677-2 0  9992,2 51788  53.2171 221.1542 0001924  34.2128  11.8297 15.08804149  1305,6917.99,95.44,541.186,538.524,0.0
51788.0,STARLINK-3641,PAYLOAD,2022-07-14 08:00:01,15.08836095,0.0002129,53.2169,219.2854,33.8478,116.6621,-0.0010353,-0.00016726,0.0,0 STARLINK-3641,1 51788U 22017W   22195.33334491 -.00016726  00000-0 -10353-2 0  9998,2 51788  53.2169 219.2854 0002129  33.8478 116.6621 15.08836095 22478,6917.892,95.438,541.23,538.285,0.0
51788.0,STARLINK-3641,PAYLOAD,2022-07-14 14:00:01,15.08823324,0.0002185,53.2165,218.1633,31.3971,37.7971,0.0010806,0.00016944,0.0,0 STARLINK-3641,1 51788U 22017W   22195.58334491  .00016944  00000-0  10806-2 0  9998,2 51788  53.2165 218.1633 0002185  31.3971  37.7971 15.08823324  1301,6917.931,95.439,541.308,538.285,0.0
51788.0,STARLINK-3641,PAYLOAD,2022-07-14 22:00:00,15.08808735,0.0001967,53.2165,216.6652,36.0123,44.7718,0.0026107,0.00041471,0.0,0 STARLINK-3641,1 51788U 22017W   22195.91667824  .00041471  00000-0  26107-2 0  9998,2 51788  53.2165 216.6652 0001967  36.0123  44.7718 15.08808735  1309,6917.976,95.44,541.202,538.48,0.0
51788.0,STARLINK-3641,PAYLOAD,2022-07-15 06:00:00,15.08847987,0.000212,53.2166,215.1701,36.0487,56.3093,-0.0019426,-0.00031079,0.0,0 STARLINK-3641,1 51788U 22017W   22196.25001157 -.00031079  00000-0 -19426-2 0  9998,2 51788  53.2166 215.1701 0002120  36.0487  56.3093 15.08847987 22618,6917.856,95.437,541.188,538.254,0.0
51788.0,STARLINK-3641,PAYLOAD,2022-07-15 14:00:01,15.08832046,0.0002241,53.2162,213.6741,33.0621,70.8857,0.0006372,9.865e-05,0.0,0 STARLINK-3641,1 51788U 22017W   22196.58334491  .00009865  00000-0  63720-3 0  9997,2 51788  53.2162 213.6741 0002241  33.0621  70.8857 15.08832046  1304,6917.905,95.438,541.32,538.219,0.0
51788.0,STARLINK-3641,PAYLOAD,2022-07-15 22:00:00,15.08816335,0.0002047,53.2164,212.176,37.6635,77.8825,0.0025653,0.00040749,0.0,0 STARLINK-3641,1 51788U 22017W   22196.91667824  .00040749  00000-0  25653-2 0  9991,2 51788  53.2164 212.1760 0002047  37.6635  77.8825 15.08816335 22713,6917.953,95.439,541.234,538.4019999999998,0.0
51788.0,STARLINK-3641,PAYLOAD,2022-07-16 14:00:01,15.08843475,0.0002329,53.2165,209.1848,34.6749,104.0497,0.00019724,2.853e-05,0.0,0 STARLINK-3641,1 51788U 22017W   22197.58334491  .00002853  00000-0  19724-3 0  9993,2 51788  53.2165 209.1848 0002329  34.6749 104.0497 15.08843475 22817,6917.87,95.437,541.346,538.124,0.0
51788.0,STARLINK-3641,PAYLOAD,2022-07-16 22:00:00,15.08826865,0.0002156,53.2167,207.6867,39.1286,111.2046,0.0025418,0.00040383,0.0,0 STARLINK-3641,1 51788U 22017W   22197.91667824  .00040383  00000-0  25418-2 0  9995,2 51788  53.2167 207.6867 0002156  39.1286 111.2046 15.08826865  1302,6917.920999999999,95.438,541.2769999999998,538.294,0.0
51788.0,STARLINK-3641,PAYLOAD,2022-07-17 14:00:01,15.08868761,0.0002395,53.2171,204.6955,35.6014,137.9302,-0.0030636,-0.00048756,0.0,0 STARLINK-3641,1 51788U 22017W   22198.58334491 -.00048756  00000-0 -30636-2 0  9992,2 51788  53.2171 204.6955 0002395  35.6014 137.9302 15.08868761  1308,6917.792,95.436,541.314,538.001,0.0
51788.0,STARLINK-3641,PAYLOAD,2022-07-17 22:00:00,15.08829174,0.0002188,53.2172,203.1923,38.131,147.0164,-0.00068783,-0.00011215,0.0,0 STARLINK-3641,1 51788U 22017W   22198.91667824 -.00011215  00000-0 -68783-3 0  9993,2 51788  53.2172 203.1923 0002188  38.1310 147.0164 15.08829174 23010,6917.913000000001,95.438,541.2919999999998,538.265,0.0
51788.0,STARLINK-3641,PAYLOAD,2022-07-18 14:00:01,15.08843787,0.0002451,53.2177,200.2064,36.0887,172.2133,-0.00096158,-0.00015562,0.0,0 STARLINK-3641,1 51788U 22017W   22199.58334491 -.00015562  00000-0 -96158-3 0  9994,2 51788  53.2177 200.2064 0002451  36.0887 172.2133 15.08843787  1308,6917.869000000002,95.437,541.429,538.038,0.0
51788.0,STARLINK-3641,PAYLOAD,2022-07-18 16:00:00,15.08852169,0.0002395,53.2179,199.8319,36.8603,264.3377,-0.0023145,-0.00036949,0.0,0 STARLINK-3641,1 51788U 22017W   22199.66667824 -.00036949  00000-0 -23145-2 0  9999,2 51788  53.2179 199.8319 0002395  36.8603 264.3377 15.08852169 23128,6917.843000000003,95.437,541.365,538.0509999999998,0.0
51788.0,STARLINK-3641,PAYLOAD,2022-07-18 22:00:00,15.08820066,0.0002298,53.2181,198.7086,40.3651,179.5345,0.0022852,0.00036249,0.0,0 STARLINK-3641,1 51788U 22017W   22199.91667824  .00036249  00000-0  22852-2 0  9992,2 51788  53.2181 198.7086 0002298  40.3651 179.5345 15.08820066  1304,6917.941,95.439,541.396,538.217,0.0
51788.0,STARLINK-3641,PAYLOAD,2022-07-19 06:00:00,15.08846266,0.0002493,53.2182,197.2139,38.9695,192.5214,-0.00088299,-0.00014317,0.0,0 STARLINK-3641,1 51788U 22017W   22200.25001157 -.00014317  00000-0 -88299-3 0  9995,2 51788  53.2182 197.2139 0002493  38.9695 192.5214 15.08846266 23210,6917.861,95.437,541.451,538.002,0.0
51788.0,STARLINK-3641,PAYLOAD,2022-07-19 14:00:01,15.08859359,0.0002502,53.2182,195.7174,38.1837,204.8999,-0.001466,-0.00023558,0.0,0 STARLINK-3641,1 51788U 22017W   22200.58334491 -.00023558  00000-0 -14660-2 0  9998,2 51788  53.2182 195.7174 0002502  38.1837 204.8999 15.08859359  1303,6917.821,95.436,541.4169999999998,537.955,0.0
51788.0,STARLINK-3641,PAYLOAD,2022-07-19 22:00:00,15.08896758,0.0002276,53.2178,194.2134,40.8409,213.8445,-0.0093598,-0.00146472,0.0,0 STARLINK-3641,1 51788U 22017W   22200.91667824 -.00146472  00000-0 -93598-2 0  9992,2 51788  53.2178 194.2134 0002276  40.8409 213.8445 15.08896758  1301,6917.706999999999,95.434,541.146,537.997,0.0
51788.0,STARLINK-3641,PAYLOAD,2022-07-20 06:00:00,15.08830327,0.0002452,53.2184,192.7251,38.271,228.025,-0.00052406,-8.617e-05,0.0,0 STARLINK-3641,1 51788U 22017W   22201.25001157 -.00008617  00000-0 -52406-3 0  9993,2 51788  53.2184 192.7251 0002452  38.2710 228.0250 15.08830327 23365,6917.91,95.438,541.471,538.0790000000002,0.0
51788.0,STARLINK-3641,PAYLOAD,2022-07-20 14:00:01,15.08849324,0.0002431,53.2182,191.2285,37.8506,240.0214,-0.0017464,-0.00027983,0.0,0 STARLINK-3641,1 51788U 22017W   22201.58334491 -.00027983  00000-0 -17464-2 0  9990,2 51788  53.2182 191.2285 0002431  37.8506 240.0214 15.08849324  1300,6917.852,95.437,541.399,538.035,0.0
51788.0,STARLINK-3641,PAYLOAD,2022-07-20 22:00:01,15.08821084,0.0002276999999999,53.2184,189.7309,42.5997,246.9291,0.0023274999999999,0.0003693,0.0,0 STARLINK-3641,1 51788U 22017W   22201.91668981  .00036930  00000-0  23275-2 0  9998,2 51788  53.2184 189.7309 0002277  42.5997 246.9291 15.08821084  1309,6917.938,95.439,541.378,538.2280000000002,0.0
51788.0,STARLINK-3641,PAYLOAD,2022-07-21 06:00:00,15.08841323,0.0002471,53.2182,188.2365,40.0589,260.9973,-0.00043562,-7.215e-05,0.0,0 STARLINK-3641,1 51788U 22017W   22202.25001157 -.00007215  00000-0 -43562-3 0  9990,2 51788  53.2182 188.2365 0002471  40.0589 260.9973 15.08841323 23517,6917.876,95.437,541.451,538.0319999999998,0.0
51788.0,STARLINK-3641,PAYLOAD,2022-07-21 14:00:01,15.08868282,0.0002396999999999,53.2177,186.7397,38.8352,273.8685,-0.0050218,-0.00079396,0.0,0 STARLINK-3641,1 51788U 22017W   22202.58335648 -.00079396  00000-0 -50218-2 0  9995,2 51788  53.2177 186.7397 0002397  38.8352 273.8685 15.08868282  1308,6917.794,95.436,541.317,538.001,0.0
51788.0,STARLINK-3641,PAYLOAD,2022-07-21 22:00:00,15.08805886,0.0002226,53.2179,185.2423,43.0396,281.2008,0.0021197,0.00033577,0.0,0 STARLINK-3641,1 51788U 22017W   22202.91667824  .00033577  00000-0  21197-2 0  9999,2 51788  53.2179 185.2423 0002226  43.0396 281.2008 15.08805886  1304,6917.985,95.44,541.39,538.31,0.0
51788.0,STARLINK-3641,PAYLOAD,2022-07-22 06:00:00,15.08823088,0.0002435,53.2176,183.7479,40.493,295.3203,-0.00019418,-3.376e-05,0.0,0 STARLINK-3641,1 51788U 22017W   22203.25001157 -.00003376  00000-0 -19418-3 0  9998,2 51788  53.2176 183.7479 0002435  40.4930 295.3203 15.08823088  1309,6917.932,95.439,541.482,538.113,0.0
51788.0,STARLINK-3641,PAYLOAD,2022-07-22 12:00:00,15.0883244,0.0002427,53.2171,182.6255,39.4481,215.0419,-0.00036458,-6.085e-05,0.0,0 STARLINK-3641,1 51788U 22017W   22203.50001157 -.00006085  00000-0 -36458-3 0  9999,2 51788  53.2171 182.6255 0002427  39.4481 215.0419 15.08832440 23702,6917.903,95.438,541.447,538.09,0.0
51788.0,STARLINK-3641,PAYLOAD,2022-07-22 22:00:00,15.08823117,0.0002284,53.2172,180.7537,45.6802,313.2904,0.0019832,0.00031402,0.0,0 STARLINK-3641,1 51788U 22017W   22203.91667824  .00031402  00000-0  19832-2 0  9998,2 51788  53.2172 180.7537 0002284  45.6802 313.2904 15.08823117  1305,6917.932,95.439,541.377,538.217,0.0
51788.0,STARLINK-3641,PAYLOAD,2022-07-23 14:00:01,15.08855297,0.0002455,53.2167,177.7619,42.7381,339.4668,-0.0020811999999999,-0.00033274,0.0,0 STARLINK-3641,1 51788U 22017W   22204.58335648 -.00033274  00000-0 -20812-2 0  9999,2 51788  53.2167 177.7619 0002455  42.7381 339.4668 15.08855297  1307,6917.834,95.437,541.3969999999998,538.0,0.0
